[{"OBJECT_NAME":"STARLINK-32620","OBJECT_ID":"2024-207S","EPOCH":"2026-03-09T23:04:51.320640","MEAN_MOTION":15.27587154,"ECCENTRICITY":0.00012387,"INCLINATION":42.9976,"RA_OF_ASC_NODE":280.2017,"ARG_OF_PERICENTER":177.7922,"MEAN_ANOMALY":182.2936,"EPHEMERIS_TYPE":0,"CLASSIFICATION_TYPE":"U","NORAD_CAT_ID":61928,"ELEMENT_SET_NO":999,"REV_AT_EPOCH":7476,"BSTAR":0.00082729981,"MEAN_MOTION_DOT":0.00022578,"MEAN_MOTION_DDOT":0},{"OBJECT_NAME":"FLOCK 4G-25","OBJECT_ID":"2025-009AP","EPOCH":"2026-03-09T17:53:50.680608","MEAN_MOTION":15.27424196,"ECCENTRICITY":8.276e-5,"INCLINATION":97.4049,"RA_OF_ASC_NODE":151.4141,"ARG_OF_PERICENTER":316.3151,"MEAN_ANOMALY":43.8023,"EPHEMERIS_TYPE":0,"CLASSIFICATION_TYPE":"U","NORAD_CAT_ID":62646,"ELEMENT_SET_NO":999,"REV_AT_EPOCH":6373,"BSTAR":0.00038902475,"MEAN_MOTION_DOT":0.00010373,"MEAN_MOTION_DDOT":0}]
